ORBCOMM-X               
1 21576U 91050C   24335.66507766  .00001149  00000+0  35639-3 0  9999
2 21576  98.3714  40.0824 0004725  73.5637 286.6072 14.42947027753480
ORBCOMM FM01            
1 23545U 95017A   24336.04108020  .00013785  00000+0  15944-2 0  9992
2 23545  69.9644 206.6932 0007307 266.1909  93.8408 14.85638480583383
ORBCOMM FM02            
1 23546U 95017B   24336.10897997  .00015519  00000+0  17978-2 0  9994
2 23546  69.9674 226.2148 0009341 264.2891  95.7197 14.85523940582988
ORBCOMM FM08            
1 25112U 97084A   24335.85918525  .00005254  00000+0  15486-2 0  9990
2 25112  45.0134 239.0340 0007013 332.2424  27.8052 14.44443472412684
ORBCOMM FM10            
1 25113U 97084B   24335.81346871  .00004862  00000+0  14410-2 0  9996
2 25113  45.0147 241.3140 0004687 303.2058  56.8343 14.44292931587824
ORBCOMM FM11            
1 25114U 97084C   24335.78544256  .00004722  00000+0  14072-2 0  9999
2 25114  45.0132 241.7413 0005649 302.3694  57.6610 14.44065352412784
ORBCOMM FM12            
1 25115U 97084D   24336.16485346  .00004338  00000+0  12959-2 0  9992
2 25115  45.0140 239.6842 0004532 305.3623  54.6804 14.44075493412870
ORBCOMM FM09            
1 25116U 97084E   24336.18269488  .00004260  00000+0  12753-2 0  9998
2 25116  45.0141 240.3639 0005567 288.4507  71.5738 14.44000768412873
